{"type": "FeatureCollection", "features": [{"type": "Feature", "properties": {"norad_id": 22490, "name": "SCD 1", "group": "resource", "lat": 9.812502300787193, "lon": -28.908238342253682, "alt_km": 746.2297287144274, "timestamp": "2025-12-07T18:50:16.380589+00:00", "meta": {"OBJECT_NAME": "SCD 1", "OBJECT_ID": "1993-009B", "EPOCH": "2025-12-07T07:47:39.088608", "MEAN_MOTION": 14.45993022, "ECCENTRICITY": 0.00417319, "INCLINATION": 24.9707, "RA_OF_ASC_NODE": 312.114, "ARG_OF_PERICENTER": 267.4179, "MEAN_ANOMALY": 235.7721, "EPHEMERIS_TYPE": 0, "CLASSIFICATION_TYPE": "U", "NORAD_CAT_ID": 22490, "ELEMENT_SET_NO": 999, "REV_AT_EPOCH": 73331, "BSTAR": 0.00017637997, "MEAN_MOTION_DOT": 8.31e-06, "MEAN_MOTION_DDOT": 0}, "tle": {"line1": "1 22490U 93009B   25341.32475797  .00000831  00000+0  17638-3 0  9996", "line2": "2 22490  24.9707 312.1140 0041731 267.4179 235.7721 14.45993022733315"}}, "geometry": {"type": "Point", "coordinates": [-28.908238342253682, 9.812502300787193]}}, {"type": "Feature", "properties": {"norad_id": 25397, "name": "TECHSAT 1B (GO-32)", "group": "resource", "lat": -23.61216909559468, "lon": -31.1485166259593, "alt_km": 815.9697098670158, "timestamp": "2025-12-07T18:50:16.380616+00:00", "meta": {"OBJECT_NAME": "TECHSAT 1B (GO-32)", "OBJECT_ID": "1998-043D", "EPOCH": "2025-12-07T05:27:45.991296", "MEAN_MOTION": 14.24374707, "ECCENTRICITY": 0.00021858, "INCLINATION": 98.9914, "RA_OF_ASC_NODE": 324.3126, "ARG_OF_PERICENTER": 66.2353, "MEAN_ANOMALY": 293.9054, "EPHEMERIS_TYPE": 0, "CLASSIFICATION_TYPE": "U", "NORAD_CAT_ID": 25397, "ELEMENT_SET_NO": 999, "REV_AT_EPOCH": 42400, "BSTAR": 0.00010379752, "MEAN_MOTION_DOT": 1.93e-06, "MEAN_MOTION_DDOT": 0}, "tle": {"line1": "1 25397U 98043D   25341.22761564  .00000193  00000+0  10380-3 0  9995", "line2": "2 25397  98.9914 324.3126 0002185  66.2353 293.9054 14.24374707424001"}}, "geometry": {"type": "Point", "coordinates": [-31.1485166259593, -23.61216909559468]}}, {"type": "Feature", "properties": {"norad_id": 25504, "name": "SCD 2", "group": "resource", "lat": 22.664525956581684, "lon": -123.86462559632005, "alt_km": 746.7529253882967, "timestamp": "2025-12-07T18:50:16.380631+00:00", "meta": {"OBJECT_NAME": "SCD 2", "OBJECT_ID": "1998-060A", "EPOCH": "2025-12-07T06:01:13.655136", "MEAN_MOTION": 14.45418714, "ECCENTRICITY": 0.00165944, "INCLINATION": 24.9933, "RA_OF_ASC_NODE": 175.7425, "ARG_OF_PERICENTER": 254.8702, "MEAN_ANOMALY": 266.3305, "EPHEMERIS_TYPE": 0, "CLASSIFICATION_TYPE": "U", "NORAD_CAT_ID": 25504, "ELEMENT_SET_NO": 999, "REV_AT_EPOCH": 43252, "BSTAR": 0.00013275837, "MEAN_MOTION_DOT": 6.58e-06, "MEAN_MOTION_DDOT": 0}, "tle": {"line1": "1 25504U 98060A   25341.25085249  .00000658  00000+0  13276-3 0  9999", "line2": "2 25504  24.9933 175.7425 0016594 254.8702 266.3305 14.45418714432522"}}, "geometry": {"type": "Point", "coordinates": [-123.86462559632005, 22.664525956581684]}}, {"type": "Feature", "properties": {"norad_id": 25757, "name": "DLR-TUBSAT", "group": "resource", "lat": 55.146072014451924, "lon": -46.489115958085286, "alt_km": 721.235279348125, "timestamp": "2025-12-07T18:50:16.380644+00:00", "meta": {"OBJECT_NAME": "DLR-TUBSAT", "OBJECT_ID": "1999-029B", "EPOCH": "2025-12-07T05:21:07.781472", "MEAN_MOTION": 14.52354352, "ECCENTRICITY": 0.00135941, "INCLINATION": 98.6558, "RA_OF_ASC_NODE": 325.5666, "ARG_OF_PERICENTER": 210.0792, "MEAN_ANOMALY": 149.9623, "EPHEMERIS_TYPE": 0, "CLASSIFICATION_TYPE": "U", "NORAD_CAT_ID": 25757, "ELEMENT_SET_NO": 999, "REV_AT_EPOCH": 40538, "BSTAR": 7.8775845e-05, "MEAN_MOTION_DOT": 2.73e-06, "MEAN_MOTION_DDOT": 0}, "tle": {"line1": "1 25757U 99029B   25341.22300673  .00000273  00000+0  78776-4 0  9993", "line2": "2 25757  98.6558 325.5666 0013594 210.0792 149.9623 14.52354352405383"}}, "geometry": {"type": "Point", "coordinates": [-46.489115958085286, 55.146072014451924]}}, {"type": "Feature", "properties": {"norad_id": 25994, "name": "TERRA", "group": "resource", "lat": -32.38770118391791, "lon": 38.753249668687104, "alt_km": 698.1363364522222, "timestamp": "2025-12-07T18:50:16.380656+00:00", "meta": {"OBJECT_NAME": "TERRA", "OBJECT_ID": "1999-068A", "EPOCH": "2025-12-07T07:47:19.080960", "MEAN_MOTION": 14.60943335, "ECCENTRICITY": 0.00035098, "INCLINATION": 97.9756, "RA_OF_ASC_NODE": 33.2076, "ARG_OF_PERICENTER": 108.822, "MEAN_ANOMALY": 318.6631, "EPHEMERIS_TYPE": 0, "CLASSIFICATION_TYPE": "U", "NORAD_CAT_ID": 25994, "ELEMENT_SET_NO": 999, "REV_AT_EPOCH": 38159, "BSTAR": 0.00021016682, "MEAN_MOTION_DOT": 9.85e-06, "MEAN_MOTION_DDOT": 0}, "tle": {"line1": "1 25994U 99068A   25341.32452640  .00000985  00000+0  21017-3 0  9997", "line2": "2 25994  97.9756  33.2076 0003509 108.8220 318.6631 14.60943335381595"}}, "geometry": {"type": "Point", "coordinates": [38.753249668687104, -32.38770118391791]}}, {"type": "Feature", "properties": {"norad_id": 27004, "name": "MAROC-TUBSAT", "group": "resource", "lat": 48.745080513112235, "lon": -18.50361322905353, "alt_km": 1005.429284589578, "timestamp": "2025-12-07T18:50:16.380668+00:00", "meta": {"OBJECT_NAME": "MAROC-TUBSAT", "OBJECT_ID": "2001-056D", "EPOCH": "2025-12-07T05:03:31.847328", "MEAN_MOTION": 13.70252464, "ECCENTRICITY": 0.00190865, "INCLINATION": 99.7911, "RA_OF_ASC_NODE": 149.5589, "ARG_OF_PERICENTER": 274.8569, "MEAN_ANOMALY": 264.8411, "EPHEMERIS_TYPE": 0, "CLASSIFICATION_TYPE": "U", "NORAD_CAT_ID": 27004, "ELEMENT_SET_NO": 999, "REV_AT_EPOCH": 19989, "BSTAR": 3.2828937e-05, "MEAN_MOTION_DOT": -1.8e-07, "MEAN_MOTION_DDOT": 0}, "tle": {"line1": "1 27004U 01056D   25341.21078527 -.00000018  00000+0  32829-4 0  9999", "line2": "2 27004  99.7911 149.5589 0019086 274.8569 264.8411 13.70252464199893"}}, "geometry": {"type": "Point", "coordinates": [-18.50361322905353, 48.745080513112235]}}, {"type": "Feature", "properties": {"norad_id": 27424, "name": "AQUA", "group": "resource", "lat": -6.45002004852125, "lon": 121.62574541152725, "alt_km": 691.0007371071779, "timestamp": "2025-12-07T18:50:16.380679+00:00", "meta": {"OBJECT_NAME": "AQUA", "OBJECT_ID": "2002-022A", "EPOCH": "2025-12-07T06:58:25.283424", "MEAN_MOTION": 14.61789686, "ECCENTRICITY": 9.201e-05, "INCLINATION": 98.4032, "RA_OF_ASC_NODE": 302.081, "ARG_OF_PERICENTER": 113.6327, "MEAN_ANOMALY": 352.8487, "EPHEMERIS_TYPE": 0, "CLASSIFICATION_TYPE": "U", "NORAD_CAT_ID": 27424, "ELEMENT_SET_NO": 999, "REV_AT_EPOCH": 25523, "BSTAR": 0.00043645437, "MEAN_MOTION_DOT": 2.129e-05, "MEAN_MOTION_DDOT": 0}, "tle": {"line1": "1 27424U 02022A   25341.29057041  .00002129  00000+0  43645-3 0  9996", "line2": "2 27424  98.4032 302.0810 0000920 113.6327 352.8487 14.61789686255235"}}, "geometry": {"type": "Point", "coordinates": [121.62574541152725, -6.45002004852125]}}, {"type": "Feature", "properties": {"norad_id": 28051, "name": "IRS-P6 (RESOURCESAT-1)", "group": "resource", "lat": 30.88893947356113, "lon": -152.61848941322918, "alt_km": 738.4553642708725, "timestamp": "2025-12-07T18:50:16.380690+00:00", "meta": {"OBJECT_NAME": "IRS-P6 (RESOURCESAT-1)", "OBJECT_ID": "2003-046A", "EPOCH": "2025-12-07T07:04:19.818048", "MEAN_MOTION": 14.36071177, "ECCENTRICITY": 0.00638872, "INCLINATION": 98.2186, "RA_OF_ASC_NODE": 21.954, "ARG_OF_PERICENTER": 197.0583, "MEAN_ANOMALY": 299.1425, "EPHEMERIS_TYPE": 0, "CLASSIFICATION_TYPE": "U", "NORAD_CAT_ID": 28051, "ELEMENT_SET_NO": 999, "REV_AT_EPOCH": 15298, "BSTAR": 0.00015265444, "MEAN_MOTION_DOT": 4.13e-06, "MEAN_MOTION_DDOT": 0}, "tle": {"line1": "1 28051U 03046A   25341.29467382  .00000413  00000+0  15265-3 0  9994", "line2": "2 28051  98.2186  21.9540 0063887 197.0583 299.1425 14.36071177152982"}}, "geometry": {"type": "Point", "coordinates": [-152.61848941322918, 30.88893947356113]}}, {"type": "Feature", "properties": {"norad_id": 28220, "name": "SHIYAN-1 (SY-1)", "group": "resource", "lat": -4.782820479603944, "lon": -137.63323665730368, "alt_km": 489.4944119789243, "timestamp": "2025-12-07T18:50:16.380701+00:00", "meta": {"OBJECT_NAME": "SHIYAN-1 (SY-1)", "OBJECT_ID": "2004-012A", "EPOCH": "2025-12-07T03:53:10.300128", "MEAN_MOTION": 15.27929306, "ECCENTRICITY": 0.00059977, "INCLINATION": 97.894, "RA_OF_ASC_NODE": 42.3724, "ARG_OF_PERICENTER": 347.2961, "MEAN_ANOMALY": 12.8125, "EPHEMERIS_TYPE": 0, "CLASSIFICATION_TYPE": "U", "NORAD_CAT_ID": 28220, "ELEMENT_SET_NO": 999, "REV_AT_EPOCH": 18171, "BSTAR": 0.0007348983, "MEAN_MOTION_DOT": 0.00019993, "MEAN_MOTION_DDOT": 0}, "tle": {"line1": "1 28220U 04012A   25341.16192477  .00019993  00000+0  73490-3 0  9999", "line2": "2 28220  97.8940  42.3724 0005997 347.2961  12.8125 15.27929306181718"}}, "geometry": {"type": "Point", "coordinates": [-137.63323665730368, -4.782820479603944]}}, {"type": "Feature", "properties": {"norad_id": 28376, "name": "AURA", "group": "resource", "lat": -26.738462388814643, "lon": -63.78476744761878, "alt_km": 696.2939517151299, "timestamp": "2025-12-07T18:50:16.380712+00:00", "meta": {"OBJECT_NAME": "AURA", "OBJECT_ID": "2004-026A", "EPOCH": "2025-12-07T05:48:40.722336", "MEAN_MOTION": 14.60927322, "ECCENTRICITY": 0.00011772, "INCLINATION": 98.318, "RA_OF_ASC_NODE": 291.4432, "ARG_OF_PERICENTER": 93.5167, "MEAN_ANOMALY": 266.6168, "EPHEMERIS_TYPE": 0, "CLASSIFICATION_TYPE": "U", "NORAD_CAT_ID": 28376, "ELEMENT_SET_NO": 999, "REV_AT_EPOCH": 13818, "BSTAR": 0.00044906146, "MEAN_MOTION_DOT": 2.151e-05, "MEAN_MOTION_DDOT": 0}, "tle": {"line1": "1 28376U 04026A   25341.24213799  .00002151  00000+0  44906-3 0  9994", "line2": "2 28376  98.3180 291.4432 0001177  93.5167 266.6168 14.60927322138181"}}, "geometry": {"type": "Point", "coordinates": [-63.78476744761878, -26.738462388814643]}}]}